NORAD_CAT_ID,OBJECT_NAME,OBJECT_TYPE,EPOCH,MEAN_MOTION,ECCENTRICITY,INCLINATION,RA_OF_ASC_NODE,ARG_OF_PERICENTER,MEAN_ANOMALY,BSTAR,MEAN_MOTION_DOT,MEAN_MOTION_DDOT,TLE_LINE0,TLE_LINE1,TLE_LINE2,SEMIMAJOR_AXIS,PERIOD,APOGEE,PERIGEE,DECAYED
53925.0,STARLINK-5011,PAYLOAD,2022-09-30 12:00:00,15.90017044,0.0037648,53.2173,225.9618,63.0884,350.4828,-0.0039709,-0.01297634,0.00048197,0 STARLINK-5011,1 53925U 22119AR  22273.50001157 -.01297634  48197-3 -39709-2 0  9990,2 53925  53.2173 225.9618 0037648  63.0884 350.4828 15.90017044  1302,6680.371999999999,90.565,327.387,277.087,0.0
53925.0,STARLINK-5011,PAYLOAD,2022-09-30 22:00:00,15.88855515,0.0033681999999999,53.2189,223.8493,65.2928,213.9475,-0.0039264,-0.01193979,0.00040972,0 STARLINK-5011,1 53925U 22119AR  22273.91667824 -.01193979  40972-3 -39264-2 0  9990,2 53925  53.2189 223.8493 0033682  65.2928 213.9475 15.88855515  1305,6683.628000000002,90.631,328.004,282.981,0.0
53925.0,STARLINK-5011,PAYLOAD,2022-10-01 06:00:00,15.87990627,0.0030443,53.219,222.1646,65.7815,320.7765,-0.0041116999999999,-0.01185662,0.00040131,0 STARLINK-5011,1 53925U 22119AR  22274.25001157 -.01185662  40131-3 -41117-2 0  9996,2 53925  53.2190 222.1646 0030443  65.7815 320.7765 15.87990627  1415,6686.054,90.681,328.273,287.565,0.0
53925.0,STARLINK-5011,PAYLOAD,2022-10-01 14:00:01,15.87138774,0.0027522,53.2187,220.478,66.0836,66.7475,-0.0044009999999999,-0.01206858,0.00041122,0 STARLINK-5011,1 53925U 22119AR  22274.58334491 -.01206858  41122-3 -44010-2 0  9999,2 53925  53.2187 220.4780 0027522  66.0836  66.7475 15.87138774  1470,6688.446,90.729,328.719,291.903,0.0
53925.0,STARLINK-5011,PAYLOAD,2022-10-01 22:00:00,15.86275645,0.0023811999999999,53.2185,218.7943,67.2517,170.8223,-0.0047233999999999,-0.01230811,0.00042286,0 STARLINK-5011,1 53925U 22119AR  22274.91667824 -.01230811  42286-3 -47234-2 0  9994,2 53925  53.2185 218.7943 0023812  67.2517 170.8223 15.86275645  1528,6690.871999999999,90.779,328.67,296.805,0.0
53925.0,STARLINK-5011,PAYLOAD,2022-10-02 06:00:00,15.85393075,0.002042,53.2186,217.1162,67.1689,275.1058,-0.0048517,-0.01076557,0.0,0 STARLINK-5011,1 53925U 22119AR  22275.25001157 -.01076557  00000-0 -48517-2 0  9998,2 53925  53.2186 217.1162 0020420  67.1689 275.1058 15.85393075  1573,6693.355,90.829,328.8880000000001,301.552,0.0
53925.0,STARLINK-5011,PAYLOAD,2022-10-02 12:00:02,15.84839695,0.0017617,53.2175,215.854,66.2256,263.5308,-0.0056686,-0.01200055,0.0,0 STARLINK-5011,1 53925U 22119AR  22275.50002315 -.01200055  00000-0 -56686-2 0  9991,2 53925  53.2175 215.8540 0017617  66.2256 263.5308 15.84839695  1616,6694.913000000001,90.861,328.5730000000001,304.9840000000001,0.0
53925.0,STARLINK-5011,PAYLOAD,2022-10-02 14:00:01,15.84612527,0.0017359,53.2188,215.4355,66.5794,18.8014,-0.0056023,-0.01175669,0.0,0 STARLINK-5011,1 53925U 22119AR  22275.58334491 -.01175669  00000-0 -56023-2 0  9999,2 53925  53.2188 215.4355 0017359  66.5794  18.8014 15.84612527  1307,6695.553000000001,90.874,329.041,305.795,0.0
53925.0,STARLINK-5011,PAYLOAD,2022-10-02 22:00:00,15.83816831,0.0014535,53.2186,213.7588,66.8404,120.6173,-0.0063967,-0.01296208,0.0,0 STARLINK-5011,1 53925U 22119AR  22275.91667824 -.01296208  00000-0 -63967-2 0  9993,2 53925  53.2186 213.7588 0014535  66.8404 120.6173 15.83816831  1309,6697.795,90.92,329.396,309.925,0.0
53925.0,STARLINK-5011,PAYLOAD,2022-10-03 06:00:00,15.82922615,0.0010925999999999,53.2187,212.087,65.9944,222.5461,-0.0065533,-0.01268928,0.0,0 STARLINK-5011,1 53925U 22119AR  22276.25001157 -.01268928  00000-0 -65533-2 0  9991,2 53925  53.2187 212.0870 0010926  65.9944 222.5461 15.82922615  1731,6700.318,90.971,329.5030000000001,314.862,0.0
53925.0,STARLINK-5011,PAYLOAD,2022-10-03 14:00:01,15.8194736,0.0008125999999999,53.2184,210.4125,62.004,326.6094,-0.0059563,-0.01095305,0.0,0 STARLINK-5011,1 53925U 22119AR  22276.58334491 -.01095305  00000-0 -59563-2 0  9990,2 53925  53.2184 210.4125 0008126  62.0040 326.6094 15.81947360  1301,6703.071,91.027,330.3830000000001,319.4890000000001,0.0
53925.0,STARLINK-5011,PAYLOAD,2022-10-03 22:00:00,15.81107248,0.0005003999999999,53.2183,208.7422,55.7889,71.7906,-0.0064102,-0.01146451,0.0,0 STARLINK-5011,1 53925U 22119AR  22276.91667824 -.01146451  00000-0 -64102-2 0  9990,2 53925  53.2183 208.7422 0005004  55.7889  71.7906 15.81107248  1844,6705.445,91.075,330.666,323.955,0.0
53925.0,STARLINK-5011,PAYLOAD,2022-10-04 14:00:01,15.7946101,0.0002275999999999,53.2186,205.4089,300.5713,21.8022,-0.0078028,-0.01273656,0.0,0 STARLINK-5011,1 53925U 22119AR  22277.58334491 -.01273656  00000-0 -78028-2 0  9995,2 53925  53.2186 205.4089 0002276 300.5713  21.8022 15.79461010  1948,6710.104,91.17,333.496,330.44199999999995,0.0
53925.0,STARLINK-5011,PAYLOAD,2022-10-04 22:00:00,15.78582153,0.0004841,53.2184,203.7453,277.4539,140.7729,-0.0079483,-0.01251317,0.0,0 STARLINK-5011,1 53925U 22119AR  22277.91667824 -.01251317  00000-0 -79483-2 0  9997,2 53925  53.2184 203.7453 0004841 277.4539 140.7729 15.78582153  1306,6712.594,91.221,337.709,331.209,0.0
53925.0,STARLINK-5011,PAYLOAD,2022-10-05 06:00:00,15.77688518,0.0001849,53.2181,202.0854,29.9488,123.0994,-0.0080473,-0.01218423,0.0,0 STARLINK-5011,1 53925U 22119AR  22278.25001157 -.01218423  00000-0 -80473-2 0  9998,2 53925  53.2181 202.0854 0001849  29.9488 123.0994 15.77688518  2050,6715.129,91.273,338.235,335.7519999999999,0.0
53925.0,STARLINK-5011,PAYLOAD,2022-10-05 14:00:01,15.76780265,0.000174,53.2183,200.4237,29.9649,216.9357,-0.0079792,-0.01166118,0.0,0 STARLINK-5011,1 53925U 22119AR  22278.58335648 -.01166118  00000-0 -79792-2 0  9994,2 53925  53.2183 200.4237 0001740  29.9649 216.9357 15.76780265  1301,6717.706999999999,91.325,340.741,338.403,0.0
53925.0,STARLINK-5011,PAYLOAD,2022-10-05 22:00:00,15.75863104,0.0001281999999999,53.2184,198.7649,28.125,311.4559,-0.0077768999999999,-0.01098568,0.0,0 STARLINK-5011,1 53925U 22119AR  22278.91667824 -.01098568  00000-0 -77769-2 0  9990,2 53925  53.2184 198.7649 0001282  28.1250 311.4559 15.75863104  1306,6720.313,91.378,343.04,341.31699999999995,0.0
53925.0,STARLINK-5011,PAYLOAD,2022-10-06 06:00:00,15.74987699,0.0001426999999999,53.2178,197.1119,33.8934,37.3676,-0.0079716,-0.01084983,0.0,0 STARLINK-5011,1 53925U 22119AR  22279.25001157 -.01084983  00000-0 -79716-2 0  9999,2 53925  53.2178 197.1119 0001427  33.8934  37.3676 15.74987699  2217,6722.803000000001,91.429,345.62800000000016,343.709,0.0
53925.0,STARLINK-5011,PAYLOAD,2022-10-06 14:00:01,15.74078554,0.0001413,53.2175,195.4566,53.4217,108.4641,-0.0066411999999999,-0.0087381,0.0,0 STARLINK-5011,1 53925U 22119AR  22279.58334491 -.00873810  00000-0 -66412-2 0  9998,2 53925  53.2175 195.4566 0001413  53.4217 108.4641 15.74078554  1300,6725.392,91.482,348.207,346.306,0.0
53925.0,STARLINK-5011,PAYLOAD,2022-10-06 22:42:55,15.73258163,0.0001327,53.2175,193.6594,56.1848,4.1595,-0.00063338,-0.00088798,0.0,0 STARLINK-5011,1 53925U 22119AR  22279.94646991 -.00088798  00000-0 -63338-3 0  9997,2 53925  53.2175 193.6594 0001327  56.1848   4.1595 15.73258163  2323,6727.729,91.53,350.487,348.702,0.0
53925.0,STARLINK-5011,PAYLOAD,2022-10-07 04:00:00,15.73266913,0.0001665999999999,53.2247,192.5839,63.4299,165.593,2.5322e-05,2.944e-05,0.0,0 STARLINK-5011,1 53925U 22119AR  22280.16667824  .00002944  00000-0  25322-4 0  9990,2 53925  53.2247 192.5839 0001666  63.4299 165.5930 15.73266913  2350,6727.704000000002,91.529,350.69,348.449,0.0
53925.0,STARLINK-5011,PAYLOAD,2022-10-07 14:00:01,15.73217079,0.0001223,53.2249,190.52,66.8979,3.3948,0.00010172,0.00013689,0.0,0 STARLINK-5011,1 53925U 22119AR  22280.58334491  .00013689  00000-0  10172-3 0  9991,2 53925  53.2249 190.5200 0001223  66.8979   3.3948 15.73217079  2428,6727.846,91.532,350.534,348.889,0.0
53925.0,STARLINK-5011,PAYLOAD,2022-10-07 22:00:00,15.73243969,0.0001395,53.2251,188.8717,66.4969,92.7607,-0.0011579,-0.00160366,0.0,0 STARLINK-5011,1 53925U 22119AR  22280.91667824 -.00160366  00000-0 -11579-2 0  9995,2 53925  53.2251 188.8717 0001395  66.4969  92.7607 15.73243969  1306,6727.77,91.531,350.5730000000001,348.696,0.0
53925.0,STARLINK-5011,PAYLOAD,2022-10-08 06:00:00,15.73134588,0.0001349,53.2244,187.2237,59.3797,188.7884,-0.0009065,-0.00125607,0.0,0 STARLINK-5011,1 53925U 22119AR  22281.25001157 -.00125607  00000-0 -90650-3 0  9991,2 53925  53.2244 187.2237 0001349  59.3797 188.7884 15.73134588  2521,6728.081999999999,91.537,350.85400000000016,349.039,0.0
53925.0,STARLINK-5011,PAYLOAD,2022-10-08 14:00:01,15.7296734,0.0001157,53.2236,185.573,70.7409,266.2333,0.00057487,0.00080026,0.0,0 STARLINK-5011,1 53925U 22119AR  22281.58334491  .00080026  00000-0  57487-3 0  9991,2 53925  53.2236 185.5730 0001157  70.7409 266.2333 15.72967340  1300,6728.559,91.547,351.202,349.645,0.0
53925.0,STARLINK-5011,PAYLOAD,2022-10-08 20:00:01,15.73024254,0.0001097999999999,53.2232,184.3372,69.7452,243.7266,0.00037996,0.00052639,0.0,0 STARLINK-5011,1 53925U 22119AR  22281.83334491  .00052639  00000-0  37996-3 0  9991,2 53925  53.2232 184.3372 0001098  69.7452 243.7266 15.73024254  2614,6728.396,91.543,351.0,349.523,0.0
53925.0,STARLINK-5011,PAYLOAD,2022-10-08 22:00:00,15.73037367,0.000113,53.2228,183.9257,66.205,359.4456,0.00031253,0.00043162,0.0,0 STARLINK-5011,1 53925U 22119AR  22281.91667824  .00043162  00000-0  31253-3 0  9990,2 53925  53.2228 183.9257 0001130  66.2050 359.4456 15.73037367  1309,6728.359,91.543,350.9840000000001,349.464,0.0
53925.0,STARLINK-5011,PAYLOAD,2022-10-09 06:00:00,15.73127909,0.0001164,53.2213,182.2777,61.6138,92.8388,0.00034753,0.00048283,0.0,0 STARLINK-5011,1 53925U 22119AR  22282.25001157  .00048283  00000-0  34753-3 0  9996,2 53925  53.2213 182.2777 0001164  61.6138  92.8388 15.73127909  2681,6728.101,91.537,350.749,349.18300000000005,0.0
